[{"OBJECT_NAME":"ASTRA 5B","OBJECT_ID":"2014-011B","EPOCH":"2026-04-05T12:51:24.335712","MEAN_MOTION":1.00273499,"ECCENTRICITY":0.00033512,"INCLINATION":0.0722,"RA_OF_ASC_NODE":306.9853,"ARG_OF_PERICENTER":49.6903,"MEAN_ANOMALY":53.4966,"EPHEMERIS_TYPE":0,"CLASSIFICATION_TYPE":"U","NORAD_CAT_ID":39617,"ELEMENT_SET_NO":999,"REV_AT_EPOCH":4393,"BSTAR":0,"MEAN_MOTION_DOT":1.39e-6,"MEAN_MOTION_DDOT":0},{"OBJECT_NAME":"IRNSS-1B","OBJECT_ID":"2014-017A","EPOCH":"2026-04-05T11:17:55.406688","MEAN_MOTION":1.00266091,"ECCENTRICITY":0.00228745,"INCLINATION":29.0595,"RA_OF_ASC_NODE":241.6465,"ARG_OF_PERICENTER":179.8778,"MEAN_ANOMALY":356.8709,"EPHEMERIS_TYPE":0,"CLASSIFICATION_TYPE":"U","NORAD_CAT_ID":39635,"ELEMENT_SET_NO":999,"REV_AT_EPOCH":4406,"BSTAR":0,"MEAN_MOTION_DOT":1.05e-6,"MEAN_MOTION_DDOT":0},{"OBJECT_NAME":"LUCH-5V","OBJECT_ID":"2014-023A","EPOCH":"2026-04-05T11:29:01.840992","MEAN_MOTION":1.00270216,"ECCENTRICITY":0.00029239,"INCLINATION":4.9551,"RA_OF_ASC_NODE":70.4556,"ARG_OF_PERICENTER":321.6837,"MEAN_ANOMALY":68.6271,"EPHEMERIS_TYPE":0,"CLASSIFICATION_TYPE":"U","NORAD_CAT_ID":39727,"ELEMENT_SET_NO":999,"REV_AT_EPOCH":4363,"BSTAR":0,"MEAN_MOTION_DOT":-2.65e-6,"MEAN_MOTION_DDOT":0},{"OBJECT_NAME":"KAZSAT-3","OBJECT_ID":"2014-023B","EPOCH":"2026-04-05T13:01:23.378016","MEAN_MOTION":1.00272189,"ECCENTRICITY":5.411e-5,"INCLINATION":0.0479,"RA_OF_ASC_NODE":56.1377,"ARG_OF_PERICENTER":55.9335,"MEAN_ANOMALY":335.6187,"EPHEMERIS_TYPE":0,"CLASSIFICATION_TYPE":"U","NORAD_CAT_ID":39728,"ELEMENT_SET_NO":999,"REV_AT_EPOCH":4172,"BSTAR":0,"MEAN_MOTION_DOT":6.2e-7,"MEAN_MOTION_DDOT":0},{"OBJECT_NAME":"EUTELSAT 3B","OBJECT_ID":"2014-030A","EPOCH":"2026-04-05T08:04:38.574048","MEAN_MOTION":1.00270753,"ECCENTRICITY":0.0001196,"INCLINATION":0.0662,"RA_OF_ASC_NODE":0.1039,"ARG_OF_PERICENTER":87.6096,"MEAN_ANOMALY":230.1629,"EPHEMERIS_TYPE":0,"CLASSIFICATION_TYPE":"U","NORAD_CAT_ID":39773,"ELEMENT_SET_NO":999,"REV_AT_EPOCH":4333,"BSTAR":0,"MEAN_MOTION_DOT":2.1e-7,"MEAN_MOTION_DDOT":0},{"OBJECT_NAME":"ASIASAT 8 (AMOS-7)","OBJECT_ID":"2014-046A","EPOCH":"2026-04-05T13:41:26.626848","MEAN_MOTION":1.00270734,"ECCENTRICITY":0.00015651,"INCLINATION":0.0526,"RA_OF_ASC_NODE":82.1725,"ARG_OF_PERICENTER":302.9855,"MEAN_ANOMALY":119.381,"EPHEMERIS_TYPE":0,"CLASSIFICATION_TYPE":"U","NORAD_CAT_ID":40107,"ELEMENT_SET_NO":999,"REV_AT_EPOCH":10142,"BSTAR":0,"MEAN_MOTION_DOT":-3.31e-6,"MEAN_MOTION_DDOT":0},{"OBJECT_NAME":"ASIASAT 6","OBJECT_ID":"2014-052A","EPOCH":"2026-04-03T00:50:38.744160","MEAN_MOTION":1.00271839,"ECCENTRICITY":0.00010981,"INCLINATION":0.0139,"RA_OF_ASC_NODE":241.3787,"ARG_OF_PERICENTER":157.2499,"MEAN_ANOMALY":285.3062,"EPHEMERIS_TYPE":0,"CLASSIFICATION_TYPE":"U","NORAD_CAT_ID":40141,"ELEMENT_SET_NO":999,"REV_AT_EPOCH":4232,"BSTAR":0,"MEAN_MOTION_DOT":-3.66e-6,"MEAN_MOTION_DDOT":0},{"OBJECT_NAME":"OPTUS 10","OBJECT_ID":"2014-054A","EPOCH":"2026-04-05T12:53:38.686848","MEAN_MOTION":1.0027134,"ECCENTRICITY":0.00020166,"INCLINATION":0.1205,"RA_OF_ASC_NODE":2.3602,"ARG_OF_PERICENTER":15.5203,"MEAN_ANOMALY":165.3723,"EPHEMERIS_TYPE":0,"CLASSIFICATION_TYPE":"U","NORAD_CAT_ID":40146,"ELEMENT_SET_NO":999,"REV_AT_EPOCH":4230,"BSTAR":0,"MEAN_MOTION_DOT":-1.46e-6,"MEAN_MOTION_DDOT":0},{"OBJECT_NAME":"MEASAT-3B","OBJECT_ID":"2014-054B","EPOCH":"2026-04-05T15:13:22.312128","MEAN_MOTION":1.00270223,"ECCENTRICITY":0.00032661,"INCLINATION":0.0613,"RA_OF_ASC_NODE":56.2198,"ARG_OF_PERICENTER":341.5764,"MEAN_ANOMALY":115.983,"EPHEMERIS_TYPE":0,"CLASSIFICATION_TYPE":"U","NORAD_CAT_ID":40147,"ELEMENT_SET_NO":999,"REV_AT_EPOCH":4218,"BSTAR":0,"MEAN_MOTION_DOT":-2.4e-6,"MEAN_MOTION_DDOT":0},{"OBJECT_NAME":"HIMAWARI-8","OBJECT_ID":"2014-060A","EPOCH":"2026-04-05T12:52:26.764896","MEAN_MOTION":1.00273716,"ECCENTRICITY":0.00010176,"INCLINATION":0.0168,"RA_OF_ASC_NODE":179.9116,"ARG_OF_PERICENTER":183.2812,"MEAN_ANOMALY":164.41,"EPHEMERIS_TYPE":0,"CLASSIFICATION_TYPE":"U","NORAD_CAT_ID":40267,"ELEMENT_SET_NO":999,"REV_AT_EPOCH":4203,"BSTAR":0,"MEAN_MOTION_DOT":-2.74e-6,"MEAN_MOTION_DDOT":0},{"OBJECT_NAME":"IRNSS-1C","OBJECT_ID":"2014-061A","EPOCH":"2026-04-05T13:24:46.348992","MEAN_MOTION":1.00272974,"ECCENTRICITY":0.00208663,"INCLINATION":6.3319,"RA_OF_ASC_NODE":90.3216,"ARG_OF_PERICENTER":356.3621,"MEAN_ANOMALY":31.408,"EPHEMERIS_TYPE":0,"CLASSIFICATION_TYPE":"U","NORAD_CAT_ID":40269,"ELEMENT_SET_NO":999,"REV_AT_EPOCH":4196,"BSTAR":0,"MEAN_MOTION_DOT":-1.58e-6,"MEAN_MOTION_DDOT":0},{"OBJECT_NAME":"INTELSAT 30 (IS-30)","OBJECT_ID":"2014-062A","EPOCH":"2026-04-05T12:17:35.078784","MEAN_MOTION":1.00272042,"ECCENTRICITY":0.00015042,"INCLINATION":0.0127,"RA_OF_ASC_NODE":223.2415,"ARG_OF_PERICENTER":33.8601,"MEAN_ANOMALY":26.073,"EPHEMERIS_TYPE":0,"CLASSIFICATION_TYPE":"U","NORAD_CAT_ID":40271,"ELEMENT_SET_NO":999,"REV_AT_EPOCH":606,"BSTAR":0,"MEAN_MOTION_DOT":-1.49e-6,"MEAN_MOTION_DDOT":0},{"OBJECT_NAME":"ARSAT 1","OBJECT_ID":"2014-062B","EPOCH":"2026-04-05T12:24:11.945088","MEAN_MOTION":1.00272206,"ECCENTRICITY":0.00017015,"INCLINATION":0.0339,"RA_OF_ASC_NODE":282.7199,"ARG_OF_PERICENTER":92.2159,"MEAN_ANOMALY":293.1199,"EPHEMERIS_TYPE":0,"CLASSIFICATION_TYPE":"U","NORAD_CAT_ID":40272,"ELEMENT_SET_NO":999,"REV_AT_EPOCH":4189,"BSTAR":0,"MEAN_MOTION_DOT":-2.58e-6,"MEAN_MOTION_DDOT":0},{"OBJECT_NAME":"EUTELSAT 53A","OBJECT_ID":"2014-064A","EPOCH":"2026-04-03T04:31:18.397632","MEAN_MOTION":1.00275274,"ECCENTRICITY":0.0001404,"INCLINATION":0.0164,"RA_OF_ASC_NODE":233.1275,"ARG_OF_PERICENTER":171.7654,"MEAN_ANOMALY":267.4551,"EPHEMERIS_TYPE":0,"CLASSIFICATION_TYPE":"U","NORAD_CAT_ID":40277,"ELEMENT_SET_NO":999,"REV_AT_EPOCH":4081,"BSTAR":0,"MEAN_MOTION_DOT":9.4e-7,"MEAN_MOTION_DDOT":0},{"OBJECT_NAME":"GSAT-16","OBJECT_ID":"2014-078A","EPOCH":"2026-04-05T13:00:23.474304","MEAN_MOTION":1.00271793,"ECCENTRICITY":0.00065351,"INCLINATION":0.0648,"RA_OF_ASC_NODE":81.098,"ARG_OF_PERICENTER":351.1495,"MEAN_ANOMALY":11.7543,"EPHEMERIS_TYPE":0,"CLASSIFICATION_TYPE":"U","NORAD_CAT_ID":40332,"ELEMENT_SET_NO":999,"REV_AT_EPOCH":4137,"BSTAR":0,"MEAN_MOTION_DOT":8.6e-7,"MEAN_MOTION_DDOT":0},{"OBJECT_NAME":"DIRECTV 14","OBJECT_ID":"2014-078B","EPOCH":"2026-04-05T09:37:38.648928","MEAN_MOTION":1.00271472,"ECCENTRICITY":7.895e-5,"INCLINATION":0.0113,"RA_OF_ASC_NODE":174.4943,"ARG_OF_PERICENTER":306.3296,"MEAN_ANOMALY":118.0454,"EPHEMERIS_TYPE":0,"CLASSIFICATION_TYPE":"U","NORAD_CAT_ID":40333,"ELEMENT_SET_NO":999,"REV_AT_EPOCH":4131,"BSTAR":0,"MEAN_MOTION_DOT":-1.24e-6,"MEAN_MOTION_DDOT":0},{"OBJECT_NAME":"YAMAL 401","OBJECT_ID":"2014-082A","EPOCH":"2026-04-04T12:10:55.496928","MEAN_MOTION":1.00273084,"ECCENTRICITY":7.473e-5,"INCLINATION":0.0033,"RA_OF_ASC_NODE":178.2178,"ARG_OF_PERICENTER":116.3114,"MEAN_ANOMALY":170.9589,"EPHEMERIS_TYPE":0,"CLASSIFICATION_TYPE":"U","NORAD_CAT_ID":40345,"ELEMENT_SET_NO":999,"REV_AT_EPOCH":4118,"BSTAR":0,"MEAN_MOTION_DOT":-2.28e-6,"MEAN_MOTION_DDOT":0}]
