ASTRA 5B                
1 39617U 14011B   26095.53569833  .00000139  00000+0  00000+0 0  9998
2 39617   0.0722 306.9853 0003351  49.6903  53.4966  1.00273499 43933
IRNSS-1B                
1 39635U 14017A   26095.47078017  .00000105  00000+0  00000+0 0  9999
2 39635  29.0595 241.6465 0022874 179.8778 356.8709  1.00266091 44063
LUCH-5V                 
1 39727U 14023A   26095.47849353 -.00000265  00000+0  00000+0 0  9995
2 39727   4.9551  70.4556 0002923 321.6837  68.6271  1.00270216 43632
KAZSAT-3                
1 39728U 14023B   26095.54263169  .00000062  00000+0  00000+0 0  9993
2 39728   0.0479  56.1377 0000541  55.9335 335.6187  1.00272189 41727
EUTELSAT 3B             
1 39773U 14030A   26095.33655757  .00000021  00000+0  00000+0 0  9991
2 39773   0.0662   0.1039 0001196  87.6096 230.1629  1.00270753 43332
ASIASAT 8 (AMOS-7)      
1 40107U 14046A   26095.57044707 -.00000331  00000+0  00000+0 0  9999
2 40107   0.0526  82.1725 0001565 302.9855 119.3810  1.00270734101426
ASIASAT 6               
1 40141U 14052A   26093.03517065 -.00000366  00000+0  00000+0 0  9993
2 40141   0.0139 241.3787 0001098 157.2499 285.3062  1.00271839 42320
OPTUS 10                
1 40146U 14054A   26095.53725332 -.00000146  00000+0  00000+0 0  9991
2 40146   0.1205   2.3602 0002016  15.5203 165.3723  1.00271340 42307
MEASAT-3B               
1 40147U 14054B   26095.63428602 -.00000240  00000+0  00000+0 0  9998
2 40147   0.0613  56.2198 0003266 341.5764 115.9830  1.00270223 42185
HIMAWARI-8              
1 40267U 14060A   26095.53642089 -.00000274  00000+0  00000+0 0  9991
2 40267   0.0168 179.9116 0001017 183.2812 164.4100  1.00273716 42036
IRNSS-1C                
1 40269U 14061A   26095.55886978 -.00000158  00000+0  00000+0 0  9994
2 40269   6.3319  90.3216 0020866 356.3621  31.4080  1.00272974 41962
INTELSAT 30 (IS-30)     
1 40271U 14062A   26095.51221156 -.00000149  00000+0  00000+0 0  9995
2 40271   0.0127 223.2415 0001504  33.8601  26.0730  1.00272042  6064
ARSAT 1                 
1 40272U 14062B   26095.51680492 -.00000258  00000+0  00000+0 0  9999
2 40272   0.0339 282.7199 0001701  92.2159 293.1199  1.00272206 41893
EUTELSAT 53A            
1 40277U 14064A   26093.18840738  .00000094  00000+0  00000+0 0  9995
2 40277   0.0164 233.1275 0001404 171.7654 267.4551  1.00275274 40817
GSAT-16                 
1 40332U 14078A   26095.54193836  .00000086  00000+0  00000+0 0  9995
2 40332   0.0648  81.0980 0006535 351.1495  11.7543  1.00271793 41371
DIRECTV 14              
1 40333U 14078B   26095.40114177 -.00000124  00000+0  00000+0 0  9996
2 40333   0.0113 174.4943 0000789 306.3296 118.0454  1.00271472 41311
YAMAL 401               
1 40345U 14082A   26094.50758677 -.00000228  00000+0  00000+0 0  9998
2 40345   0.0033 178.2178 0000747 116.3114 170.9589  1.00273084 41181
